STARLINK-6159           
1 56381U 23061H   24086.44512626  .00040154  00000+0  29712-2 0  9991
2 56381  43.0007 113.0819 0001300 280.0746  79.9950 15.02527488 49467
STARLINK-6160           
1 56382U 23061J   24086.49938712 -.00000250  00000+0 -34286-5 0  9995
2 56382  43.0022 112.6284 0001170 280.4313  79.6398 15.02527462 49471
STARLINK-6166           
1 56383U 23061K   24086.43512082 -.00001299  00000+0 -81115-4 0  9994
2 56383  43.0017 113.0051 0001222 270.6453  89.4250 15.02527354 49462
STARLINK-6153           
1 56384U 23061L   24086.42513339 -.00000889  00000+0 -50747-4 0  9991
2 56384  43.0016 112.9278 0001220 255.5500 104.5207 15.02527519 49468
STARLINK-6173           
1 56385U 23061M   24086.42957921  .00010673  00000+0  80397-3 0  9994
2 56385  43.0016 112.9636 0001194 262.6507  97.4200 15.02536075 49463
STARLINK-5836           
1 56386U 23061N   24086.55142850 -.00002854  00000+0 -19638-3 0  9990
2 56386  43.0015 112.1553 0001252 259.7208 100.3493 15.02522546 49481
STARLINK-6178           
1 56387U 23061P   24086.42625134  .00002412  00000+0  19361-3 0  9999
2 56387  43.0011 112.9365 0001032 264.9362  95.1362 15.02525681 49469
STARLINK-6176           
1 56388U 23061Q   24086.47608986  .00022317  00000+0  16640-2 0  9993
2 56388  43.0005 112.4487 0001098 239.4222 120.6512 15.02487818 49478
STARLINK-6145           
1 56389U 23061R   24086.42180196  .00004787  00000+0  36924-3 0  9996
2 56389  43.0011 112.9031 0001192 251.5321 108.5392 15.02528545 49469
STARLINK-6300           
1 56390U 23061S   24086.41551961  .00011410  00000+0  85840-3 0  9991
2 56390  43.0015 100.7246 0001191 271.3625  88.7081 15.02534318 49609
STARLINK-6298           
1 56391U 23061T   24086.48163728  .00005419  00000+0  41617-3 0  9995
2 56391  43.0008 112.4911 0001331 272.5004  87.5686 15.02512201 49471
STARLINK-6301           
1 56392U 23061U   24086.41775398  .00006030  00000+0  46120-3 0  9995
2 56392  43.0000 100.7422 0001061 266.5268  93.5453 15.02523775 49608
STARLINK-6303           
1 56393U 23061V   24086.41181202  .00028842  00000+0  21412-2 0  9992
2 56393  43.0004 112.8276 0001500 260.0837  99.9836 15.02538445 49462
STARLINK-6305           
1 56394U 23061W   24086.47312691 -.00001256  00000+0 -77948-4 0  9996
2 56394  43.0033 100.2953 0001011 263.3292  96.7435 15.02523960 49619
STARLINK-6273           
1 56395U 23061X   24086.40998177  .00000559  00000+0  56492-4 0  9993
2 56395  43.0012 100.6819 0001159 268.5203  91.5506 15.02526568 50312
STARLINK-6302           
1 56396U 23061Y   24086.53411069 -.00039046  00000+0 -29022-2 0  9990
2 56396  43.0051  99.8943 0002175 285.1354  74.9247 15.02394782 44753
STARLINK-6271           
1 56397U 23061Z   24086.41221417  .00013273  00000+0  99607-3 0  9993
2 56397  43.0014 100.6985 0001368 258.6903 101.3785 15.02524544 49600
STARLINK-6288           
1 56398U 23061AA  24086.39776785 -.00000509  00000+0 -22654-4 0  9993
2 56398  43.0003 100.5895 0001367 278.2699  81.7988 15.02525927 49609
STARLINK-6277           
1 56399U 23061AB  24086.40330265  .00045648  00000+0  33661-2 0  9994
2 56399  43.0011 100.6303 0001245 263.9084  96.1617 15.02605068 49602
STARLINK-6267           
1 56400U 23061AC  24086.45867199 -.00009854  00000+0 -71593-3 0  9991
2 56400  43.0015 100.1856 0000963 267.6636  92.4096 15.02508306 49615
STARLINK-6256           
1 56401U 23061AD  24086.40024716  .00006853  00000+0  52182-3 0  9994
2 56401  43.0012  87.6000 0001282 269.0862  90.9833 15.02542852 49756
STARLINK-6284           
1 56403U 23061AF  24086.39443606 -.00002335  00000+0 -15786-3 0  9999
2 56403  43.0016 100.5630 0001260 256.8229 103.2473 15.02524139 49603
STARLINK-6287           
1 56404U 23061AG  24086.38332915  .00012889  00000+0  96739-3 0  9999
2 56404  43.0014 100.4781 0001124 258.1610 101.9106 15.02538967 49608
STARLINK-6285           
1 56405U 23061AH  24086.38887944  .00006635  00000+0  50585-3 0  9998
2 56405  43.0010 100.5210 0001332 256.9215 103.1479 15.02527674 49601
STARLINK-6283           
1 56406U 23061AJ  24086.44093063  .00014385  00000+0  10781-2 0  9991
2 56406  43.0013 100.0511 0001370 273.3493  86.7193 15.02524316 49617
STARLINK-6282           
1 56407U 23061AK  24086.51852225  .00011524  00000+0  86706-3 0  9996
2 56407  43.0017  99.7736 0001400 271.5663  88.5019 15.02522696 49625
STARLINK-6289           
1 56408U 23061AL  24086.43871848  .00011101  00000+0  83574-3 0  9991
2 56408  43.0008 100.0190 0001094 242.9677 117.1054 15.02525368 49618
STARLINK-6241           
1 56409U 23061AM  24086.44648972  .00012434  00000+0  93421-3 0  9995
2 56409  43.0010 100.0926 0001196 245.3523 114.7195 15.02522374 49612
STARLINK-6281           
1 56410U 23061AN  24086.43206564  .00013279  00000+0  99652-3 0  9993
2 56410  43.0009  99.9829 0001110 275.4003  84.6712 15.02524137 49612
STARLINK-6279           
1 56411U 23061AP  24086.51074590  .00009274  00000+0  70075-3 0  9993
2 56411  43.0012  99.7108 0000985 256.2235 103.8498 15.02530914 49916
STARLINK-6278           
1 56412U 23061AQ  24086.42651296  .00036909  00000+0  27337-2 0  9995
2 56412  43.0002  99.9415 0001418 253.8582 106.2105 15.02525576 49616
STARLINK-6258           
1 56413U 23061AR  24086.43538158  .00001419  00000+0  12008-3 0  9996
2 56413  43.0014 100.0077 0001287 260.2237  99.8460 15.02533646 49619
STARLINK-5136           
1 56414U 23061AS  24086.42207482  .00036028  00000+0  26697-2 0  9991
2 56414  43.0003  99.9066 0001191 272.2535  87.8171 15.02517803 49613
STARLINK-6268           
1 56415U 23061AT  24086.42984316  .00012619  00000+0  94783-3 0  9992
2 56415  43.0004  99.9644 0001207 275.1770  84.8935 15.02525312 49617
STARLINK-6260           
1 56416U 23061AU  24086.34043052  .00000430  00000+0  46909-4 0  9993
2 56416  43.0006  88.0070 0000924 265.5432  94.5304 15.02527973 49742
STARLINK-6261           
1 56417U 23061AV  24086.22373426 -.00001955  00000+0 -12974-3 0  9991
2 56417  43.0007 100.9985 0001314 258.3703 101.6992 15.02525402 49588
STARLINK-5356           
1 56418U 23061AW  24086.39247813  .00013245  00000+0  99394-3 0  9994
2 56418  43.0015  87.5409 0000998 285.6911  74.3821 15.02528045 49752
STARLINK-5350           
1 56419U 23061AX  24086.48632085  .00014831  00000+0  11107-2 0  9991
2 56419  43.0011  99.5286 0001116 257.2420 102.8298 15.02533397 49625
STARLINK-6272           
1 56420U 23061AY  24085.99027260 -.00001061  00000+0 -63511-4 0  9992
2 56420  43.0013  89.6834 0001183 250.0385 110.0330 15.02526474 49696
STARLINK-6270           
1 56421U 23061AZ  24086.34265072  .00018268  00000+0  13640-2 0  9999
2 56421  43.0010  88.0228 0001218 271.4138  88.6564 15.02531543 49744
STARLINK-6236           
1 56422U 23061BA  24086.38359065  .00026795  00000+0  19908-2 0  9997
2 56422  43.0021  87.4734 0001322 260.6085  99.4607 15.02541143 49755
STARLINK-6239           
1 56423U 23061BB  24086.38581854  .00023050  00000+0  17161-2 0  9991
2 56423  43.0019  87.4892 0001113 269.6693  90.4022 15.02529783 49758
STARLINK-6242           
1 56424U 23061BC  24086.37693900  .00035742  00000+0  26480-2 0  9992
2 56424  43.0019  87.4228 0001416 266.2369  93.8311 15.02528335 49751
STARLINK-6224           
1 56425U 23061BD  24086.38027487  .00001187  00000+0  10293-3 0  9997
2 56425  43.0036  87.4480 0001176 269.9398  90.1309 15.02522232 49753
STARLINK-5352           
1 56426U 23061BE  24086.35707089  .00000488  00000+0  51254-4 0  9994
2 56426  43.0037  88.1164 0001823 277.6399  82.4236 15.02512955 49741
STARLINK-5724           
1 56427U 23061BF  24086.41245447 -.00014239  00000+0 -10424-2 0  9990
2 56427  43.0017  87.6758 0001292 236.7381 123.3338 15.02490497 49755
STARLINK-6238           
1 56428U 23061BG  24086.36916631  .00000739  00000+0  69772-4 0  9995
2 56428  43.0029  87.3616 0001161 272.6984  87.3726 15.02528315 49753
STARLINK-6264           
1 56429U 23061BH  24086.36583040  .00006503  00000+0  49619-3 0  9992
2 56429  43.0015  87.3350 0001345 259.8773 100.1918 15.02521572 49756
STARLINK-5990           
1 56448U 23064A   24086.55528844 -.00000589  00000+0 -41632-4 0  9996
2 56448  70.0020 142.5974 0002645 264.5072  95.5785 14.98314541 48420
STARLINK-5993           
1 56449U 23064B   24086.57598834 -.00004882  00000+0 -40171-3 0  9991
2 56449  69.9995 142.6696 0002923 263.3870  96.6956 14.98327789 48423
STARLINK-5970           
1 56450U 23064C   24086.55111804 -.00004421  00000+0 -36308-3 0  9995
2 56450  69.9992 142.5831 0002682 273.2640  86.8212 14.98318409 48424
STARLINK-5985           
1 56451U 23064D   24086.57181845 -.00002277  00000+0 -18320-3 0  9991
2 56451  70.0000 142.6538 0002838 266.3844  93.6991 14.98316652 48423
STARLINK-5986           
1 56452U 23064E   24086.56764618 -.00002481  00000+0 -20023-3 0  9996
2 56452  69.9997 142.6396 0002796 266.3771  93.7068 14.98320052 48425
STARLINK-5935           
1 56453U 23064F   24086.56347163 -.00002893  00000+0 -23483-3 0  9999
2 56453  69.9999 142.6239 0002391 256.2477 103.8416 14.98316539 48780
STARLINK-5959           
1 56454U 23064G   24086.54260109 -.00003296  00000+0 -26871-3 0  9994
2 56454  70.0006 142.5524 0002504 265.1854  94.9019 14.98317126 48426
STARLINK-5987           
1 56455U 23064H   24086.53842512 -.00003650  00000+0 -29838-3 0  9998
2 56455  70.0008 142.5371 0002783 269.5450  90.5390 14.98320046 48427
STARLINK-5995           
1 56456U 23064J   24086.55093698 -.00005959  00000+0 -49232-3 0  9998
2 56456  69.9998 142.5813 0002808 266.3267  93.7571 14.98310345 48420
STARLINK-5994           
1 56457U 23064K   24086.54276297 -.00003687  00000+0 -30144-3 0  9994
2 56457  69.9994 142.5527 0002850 265.2026  94.8808 14.98322432 48422
STARLINK-6050           
1 56458U 23064L   24086.55511101 -.00002761  00000+0 -22374-3 0  9990
2 56458  69.9995 142.5933 0002787 267.5816  92.5024 14.98319754 48424
STARLINK-6048           
